BEIDOU 3 (C01)          
1 36287U 10001A   21348.88551498 -.00000267  00000-0  00000-0 0  9990
2 36287   1.7741  44.8257 0001500  78.2304  59.8934  1.00275312 43666
BEIDOU 5 (C06)          
1 36828U 10036A   21347.09957495 -.00000025  00000-0  00000-0 0  9990
2 36828  54.1819 177.9429 0023722 174.1443 230.0324  1.00252020 41715
BEIDOU 6 (C04)          
1 37210U 10057A   21348.88935258 -.00000099  00000-0  00000-0 0  9991
2 37210   0.8420  46.2791 0006908 160.7474 356.9445  1.00269998 40789
BEIDOU 7 (C07)          
1 37256U 10068A   21348.87915880 -.00000220  00000-0  00000-0 0  9997
2 37256  50.5452 291.8548 0015528 189.6579  24.5337  1.00251378 40295
BEIDOU 8 (C08)          
1 37384U 11013A   21348.47755838 -.00000203  00000-0  00000-0 0  9992
2 37384  60.0277  56.0999 0019250 191.3990 112.0181  1.00258778 39167
BEIDOU 9 (C09)          
1 37763U 11038A   21349.21248096  .00000021  00000-0  00000+0 0  9992
2 37763  54.4676 180.3919 0086191 225.3051 210.5752  1.00272782 38152
BEIDOU 10 (C10)         
1 37948U 11073A   21348.94382833 -.00000170  00000-0  00000-0 0  9990
2 37948  50.6512 291.4898 0078991 219.4191   5.6348  1.00294326 36905
BEIDOU 11 (C05)         
1 38091U 12008A   21349.15627269  .00000070  00000-0  00000+0 0  9995
2 38091   1.9501  71.2443 0004749 272.7568 215.0003  1.00273713 35981
BEIDOU 12 (C11)         
1 38250U 12018A   21348.53869605 -.00000089  00000-0  00000-0 0  9998
2 38250  56.7337 359.6678 0024940 250.8771 182.4806  1.86234290 65649
BEIDOU 13 (C12)         
1 38251U 12018B   21348.65042396 -.00000089  00000-0  00000-0 0  9992
2 38251  56.6532 359.0015 0015764 254.0706 298.4916  1.86234062 65640
BEIDOU 15 (C14)         
1 38775U 12050B   21348.60642553  .00000003  00000-0  00000+0 0  9999
2 38775  55.2980 117.9114 0011491 327.1677  32.9076  1.86231264 63025
BEIDOU 16 (C02)         
1 38953U 12059A   21349.16133134 -.00000160  00000-0  00000+0 0  9993
2 38953   1.5355  84.4721 0010822 275.7049 225.9038  1.00268537 33559
BEIDOU 17 (C31)         
1 40549U 15019A   21348.87661870 -.00000193  00000-0  00000-0 0  9993
2 40549  52.2019 314.8993 0036511 191.5456 348.8496  1.00282082 24581
BEIDOU 18 (C57)         
1 40748U 15037A   21348.23174304 -.00000091  00000-0  00000-0 0  9992
2 40748  55.9129 357.9932 0003131 321.1308 220.4396  1.86233344 43467
BEIDOU 19 (C58)         
1 40749U 15037B   21348.44350465 -.00000091  00000-0  00000-0 0  9990
2 40749  55.9159 357.9768 0006179 295.8126 163.0151  1.86232072 43466
BEIDOU 20 (C18)         
1 40938U 15053A   21349.01396740 -.00000159  00000-0  00000+0 0  9992
2 40938  51.7878 277.9941 0043468 195.4915  70.2997  1.00288127 22850
BEIDOU IGSO-6 (C13)     
1 41434U 16021A   21348.66110222 -.00000185  00000-0  00000-0 0  9999
2 41434  57.8300  54.7578 0045243 214.6729 148.1050  1.00277820 20981
BEIDOU-2 G7 (C03)       
1 41586U 16037A   21348.82210155 -.00000341  00000-0  00000-0 0  9992
2 41586   1.5716  66.0859 0007684   0.4020  63.7376  1.00271166 20290
BEIDOU-3 M1 (C19)       
1 43001U 17069A   21349.17528627 -.00000003  00000-0  00000+0 0  9991
2 43001  55.4520 117.8684 0007526 285.3962 252.1793  1.86231580 27968
BEIDOU-3 M2 (C20)       
1 43002U 17069B   21348.57258483  .00000004  00000-0  00000-0 0  9996
2 43002  55.4512 117.9232 0005787 316.8689 219.8501  1.86231288 27943
BEIDOU-3 M3 (C27)       
1 43107U 18003A   21349.14228096 -.00000092  00000-0  00000+0 0  9999
2 43107  55.3593 358.9622 0003350  41.5128 323.1254  1.86232393 26728
BEIDOU-3 M4 (C28)       
1 43108U 18003B   21348.14721447 -.00000093  00000-0  00000-0 0  9999
2 43108  55.3538 358.9864 0004296 249.9765 212.4468  1.86230876 26706
BEIDOU-3 M5 (C21)       
1 43207U 18018A   21347.90417502  .00000011  00000-0  00000-0 0  9991
2 43207  55.4115 118.0306 0003815 355.6803   4.2830  1.86231487 26088
BEIDOU-3 M6 (C22)       
1 43208U 18018B   21348.50783937  .00000004  00000-0  00000+0 0  9998
2 43208  55.4101 118.0152 0005486 299.9436  59.9662  1.86231550 26093
BEIDOU-3 M7 (C29)       
1 43245U 18029A   21348.45801697 -.00000092  00000-0  00000-0 0  9998
2 43245  55.2830 356.7649 0001493 271.9385 264.2451  1.86232468 25242
BEIDOU-3 M8 (C30)       
1 43246U 18029B   21348.26396178 -.00000092  00000-0  10000-3 0  9995
2 43246  55.2794 356.8032 0004034 333.8876 118.5733  1.86232819 25239
BEIDOU IGSO-7 (C16)     
1 43539U 18057A   21348.81131347 -.00000028  00000-0  00000-0 0  9992
2 43539  55.0629 177.3436 0040069 220.6769  91.0093  1.00266545 12650
BEIDOU-3 M9 (C23)       
1 43581U 18062A   21348.74050994  .00000012  00000-0  00000-0 0  9997
2 43581  54.3345 238.4146 0003828 304.2810 318.1627  1.86231867 22985
BEIDOU-3 M10 (C24)      
1 43582U 18062B   21348.59591036  .00000010  00000-0  00000+0 0  9995
2 43582  54.3346 238.4091 0006567   3.2474 253.8364  1.86232354 22986
BEIDOU-3 M11 (C25)      
1 43602U 18067A   21348.52960148  .00000013  00000-0  00000-0 0  9994
2 43602  54.4136 237.0096 0007755   5.3424 249.0566  1.86231508 22470
BEIDOU-3 M12 (C26)      
1 43603U 18067B   21348.64825382  .00000015  00000-0  00000-0 0  9990
2 43603  54.4104 236.9725 0004887 356.8953 247.4707  1.86231431 22493
BEIDOU-3 M13 (C32)      
1 43622U 18072A   21348.50577559  .00000003  00000-0  00000-0 0  9999
2 43622  55.3768 117.5725 0004444 274.8850 263.8117  1.86231480 22006
BEIDOU-3 M14 (C33)      
1 43623U 18072B   21348.69979891  .00000001  00000-0  00000-0 0  9993
2 43623  55.3788 117.5581 0002314 319.0030  80.0112  1.86231486 22016
BEIDOU-3 M15 (C34)      
1 43647U 18078A   21348.51202013 -.00000093  00000-0  10000-3 0  9997
2 43647  55.1764 356.9384 0006259 346.7849 181.6239  1.86232704 21517
BEIDOU-3 M16 (C35)      
1 43648U 18078B   21348.65453622 -.00000093  00000-0  00000-0 0  9993
2 43648  55.1727 356.9404 0003909 351.5350 180.5556  1.86232193 21534
BEIDOU-3 G1 (C59)       
1 43683U 18085A   21348.88534056 -.00000262  00000-0  00000-0 0  9994
2 43683   0.8556 199.7877 0004804  46.1476 296.5667  1.00275412 11557
BEIDOU-3 M17 (C36)      
1 43706U 18093A   21348.01359714  .00000002  00000-0  00000-0 0  9991
2 43706  54.4151 238.3111 0008570 284.2899  75.6840  1.86232002 20885
BEIDOU-3 M18 (C37)      
1 43707U 18093B   21348.80822907  .00000014  00000-0  00000-0 0  9991
2 43707  54.4160 238.2740 0008391 310.0718 313.7090  1.86232185 20887
BEIDOU-3 IGSO-1 (C38)   
1 44204U 19023A   21348.59395331 -.00000242  00000-0  00000-0 0  9994
2 44204  56.2856  54.9649 0023041 192.0527 168.9403  1.00266349  9866
BEIDOU-2 G8             
1 44231U 19027A   21348.88629994 -.00000235  00000-0  00000-0 0  9997
2 44231   0.4445  58.1403 0006334 154.0922 335.0509  1.00267026  9573
BEIDOU-3 IGSO-2 (C39)   
1 44337U 19035A   21348.94980052 -.00000032  00000-0  00000-0 0  9990
2 44337  55.1006 173.3733 0020799 176.7809 193.5901  1.00256851  9209
BEIDOU-3 M23 (C45)      
1 44542U 19061A   21348.87714762  .00000015  00000-0  10000-3 0  9996
2 44542  54.6410 238.3867 0009195 341.3260 281.1510  1.86231534 15143
BEIDOU-3 M24 (C46)      
1 44543U 19061B   21349.01211542  .00000017  00000-0  10000-3 0  9994
2 44543  54.6405 238.3524 0006352 334.4400 289.5951  1.86231834 15143
BEIDOU-3 IGSO-3         
1 44709U 19073A   21348.46834196 -.00000214  00000-0  00000-0 0  9991
2 44709  57.5628 298.3005 0018549 186.8921 245.9293  1.00262960  7959
BEIDOU-3 M21            
1 44793U 19078A   21348.97292286 -.00000093  00000-0  10000-3 0  9992
2 44793  55.0233 356.9681 0005877 354.3070  77.3050  1.86232235 14014
BEIDOU-3 M22            
1 44794U 19078B   21349.15149679 -.00000093  00000-0  00000+0 0  9996
2 44794  54.9994 356.9567 0003940 344.2872 118.3656  1.86232743 14019
BEIDOU-3 M19            
1 44864U 19090A   21349.13346569 -.00000003  00000-0  00000+0 0  9994
2 44864  55.3117 117.7727 0014788 262.8988  22.2287  1.86231735 13590
BEIDOU-3 M20            
1 44865U 19090B   21348.84059755  .00000000  00000-0  00000+0 0  9996
2 44865  55.3146 117.8125 0012966 278.7484 259.9188  1.86231669 13561
BEIDOU-3 G2             
1 45344U 20017A   21348.87339163 -.00000129  00000-0  00000-0 0  9991
2 45344   2.2208 343.5727 0001184 208.3655 286.2816  1.00271219  6765
BEIDOU-3 G3             
1 45807U 20040A   21349.09478377 -.00000338  00000-0  00000+0 0  9998
2 45807   1.8652 300.4088 0009430 353.2173 295.0289  1.00271677  5585
